{"spkid": "20678715", "covariance": {"labels": ["e", "q", "tp", "node", "peri", "i"], "data": [["2.250483440274625E-15", "-5.125999869482949E-15", "5.527841567210343E-13", "-1.518989766798014E-13", "1.840104271569603E-13", "-4.672073781335427E-14"], ["-5.125999869482949E-15", "1.170276984560762E-14", "-1.523727015150796E-12", "3.532759205572025E-13", "-4.438550059486588E-13", "1.005013923708876E-13"], ["5.527841567210343E-13", "-1.523727015150796E-12", "2.895122411816392E-9", "-1.211931794897965E-10", "3.330248450212018E-10", "4.77614647633431E-11"], ["-1.518989766798014E-13", "3.532759205572025E-13", "-1.211931794897965E-10", "1.213126790066152E-9", "-1.152186424641837E-9", "1.289065812606797E-10"], ["1.840104271569603E-13", "-4.438550059486588E-13", "3.330248450212018E-10", "-1.152186424641837E-9", "1.150397034614933E-9", "-1.141813204276635E-10"], ["-4.672073781335427E-14", "1.005013923708876E-13", "4.77614647633431E-11", "1.289065812606797E-10", "-1.141813204276635E-10", "7.769703824759459E-11"]], "elements": [{"units": null, "value": ".8450734152089042", "title": "eccentricity", "name": "e", "sigma": 4.74392605367603e-08, "label": "e"}, {"label": "q", "sigma": 1.08179341122081e-07, "name": "q", "units": "au", "title": "perihelion distance", "value": ".346940978996333"}, {"label": "tp", "value": "2457988.251726487568", "title": "time of perihelion passage", "units": "TDB", "sigma": 5.38063417434822e-05, "name": "tp"}, {"units": "deg", "value": "78.02581134499056", "title": "longitude of the ascending node", "sigma": 3.48299697109566e-05, "name": "om", "label": "node"}, {"units": "deg", "value": "234.644283676101", "title": "argument of perihelion", "sigma": 3.39175033664763e-05, "name": "w", "label": "peri"}, {"title": "inclination", "value": "15.90633269295158", "units": "deg", "name": "i", "sigma": 8.81459234721576e-06, "label": "i"}], "epoch": "2458403.5"}, "elements": [{"label": "e", "name": "e", "sigma": "4.7093E-8", "units": null, "title": "eccentricity", "value": ".8467604401216373"}, {"label": "a", "sigma": "3.5231E-8", "name": "a", "value": "2.237474565575492", "title": "semi-major axis", "units": "au"}, {"name": "q", "sigma": "1.0718E-7", "title": "perihelion distance", "value": ".342869617667819", "units": "au", "label": "q"}, {"units": "deg", "value": "15.83673607206715", "title": "inclination; angle with respect to x-y ecliptic plane", "sigma": "8.8017E-6", "name": "i", "label": "i"}, {"name": "om", "sigma": "3.5317E-5", "units": "deg", "value": "77.65135064928957", "title": "longitude of the ascending node", "label": "node"}, {"sigma": "3.4346E-5", "name": "w", "title": "argument of perihelion", "value": "234.9944144317834", "units": "deg", "label": "peri"}, {"label": "M", "units": "deg", "title": "mean anomaly", "value": "224.7502349196111", "sigma": "8.5066E-6", "name": "ma"}, {"sigma": "3.8685E-5", "name": "tp", "units": "TDB", "title": "time of perihelion passage", "value": "2461659.771616458613", "label": "tp"}, {"label": "period", "units": "d", "title": "sidereal orbital period", "value": "1222.462618155588", "sigma": "2.8873E-5", "name": "per"}, {"sigma": "6.9554E-9", "name": "n", "units": "deg/d", "title": "mean motion", "value": ".2944875325048026", "label": "n"}, {"name": "ad", "sigma": "6.5063E-8", "title": "aphelion distance", "value": "4.132079513483164", "units": "au", "label": "Q"}], "epoch": "2461200.5"}